start=new Date('2021-12-26T00:00:00.000Z').valueOf();
sats=[{"REV_AT_EPOCH":"7291","TLE_LINE1":"1 46384U 20062BM  21359.48267483 -.00000108  00000-0  11636-4 0  9998","ARG_OF_PERICENTER":"89.9758","ECCENTRICITY":"0.00013850","RA_OF_ASC_NODE":"68.4203","SEMIMAJOR_AXIS":"6925.401","MEAN_MOTION":"15.06382960","FILE":"3250775","EPOCH":"2021-12-25T11:35:03.105312","DECAY_DATE":null,"GP_ID":"192427662","PERIAPSIS":"546.307","OBJECT_ID":"2020-062BM","BSTAR":"0.00001163600000","RCS_SIZE":"LARGE","INCLINATION":"53.0568","ELEMENT_SET_NO":"999","APOAPSIS":"548.225","EPHEMERIS_TYPE":"0","REF_FRAME":"TEME","MEAN_ELEMENT_THEORY":"SGP4","TIME_SYSTEM":"UTC","LAUNCH_DATE":"2020-09-03","MEAN_MOTION_DOT":"-0.00000108","NORAD_CAT_ID":"46384","MEAN_ANOMALY":"270.1390","CENTER_NAME":"EARTH","CLASSIFICATION_TYPE":"U","TLE_LINE2":"2 46384  53.0568  68.4203 0001385  89.9758 270.1390 15.06382960 72911","OBJECT_TYPE":"PAYLOAD","COUNTRY_CODE":"US","OBJECT_NAME":"STARLINK-1771","PERIOD":"95.593","MEAN_MOTION_DDOT":"0.0000000000000","SITE":"AFETR"},{"MEAN_MOTION_DDOT":"0.0000000000000","PERIOD":"95.592","SITE":"AFETR","MEAN_MOTION_DOT":"0.00001031","CLASSIFICATION_TYPE":"U","CENTER_NAME":"EARTH","NORAD_CAT_ID":"46532","MEAN_ANOMALY":"283.7837","OBJECT_TYPE":"PAYLOAD","TLE_LINE2":"2 46532  53.0525 226.6454 0002383  76.3418 283.7837 15.06398568 68177","COUNTRY_CODE":"US","OBJECT_NAME":"STARLINK-1644","TIME_SYSTEM":"UTC","LAUNCH_DATE":"2020-10-06","ELEMENT_SET_NO":"999","EPHEMERIS_TYPE":"0","APOAPSIS":"548.868","REF_FRAME":"TEME","MEAN_ELEMENT_THEORY":"SGP4","OBJECT_ID":"2020-070A","BSTAR":"0.00008809900000","INCLINATION":"53.0525","RCS_SIZE":"LARGE","EPOCH":"2021-12-25T21:08:16.892448","DECAY_DATE":null,"FILE":"3250974","GP_ID":"192458139","PERIAPSIS":"545.568","ARG_OF_PERICENTER":"76.3418","ECCENTRICITY":"0.00023830","RA_OF_ASC_NODE":"226.6454","SEMIMAJOR_AXIS":"6925.353","MEAN_MOTION":"15.06398568","REV_AT_EPOCH":"6817","TLE_LINE1":"1 46532U 20070A   21359.88075107  .00001031  00000-0  88099-4 0  9998"},{"SITE":"AFETR","MEAN_MOTION_DDOT":"0.0000000000000","PERIOD":"95.593","CLASSIFICATION_TYPE":"U","MEAN_ANOMALY":"287.2296","NORAD_CAT_ID":"46533","CENTER_NAME":"EARTH","MEAN_MOTION_DOT":"-0.00002873","COUNTRY_CODE":"US","OBJECT_NAME":"STARLINK-1648","OBJECT_TYPE":"PAYLOAD","TLE_LINE2":"2 46533  53.0503 226.6037 0002405  72.8956 287.2296 15.06386061 68177","LAUNCH_DATE":"2020-10-06","TIME_SYSTEM":"UTC","EPHEMERIS_TYPE":"0","APOAPSIS":"548.922","ELEMENT_SET_NO":"999","MEAN_ELEMENT_THEORY":"SGP4","REF_FRAME":"TEME","BSTAR":"-0.00017411000000","OBJECT_ID":"2020-070B","INCLINATION":"53.0503","RCS_SIZE":"LARGE","DECAY_DATE":null,"EPOCH":"2021-12-25T21:24:12.077280","FILE":"3250974","PERIAPSIS":"545.591","GP_ID":"192456889","ECCENTRICITY":"0.00024050","ARG_OF_PERICENTER":"72.8956","RA_OF_ASC_NODE":"226.6037","SEMIMAJOR_AXIS":"6925.391","MEAN_MOTION":"15.06386061","TLE_LINE1":"1 46533U 20070B   21359.89180645 -.00002873  00000-0 -17411-3 0  9990","REV_AT_EPOCH":"6817"},{"MEAN_ELEMENT_THEORY":"SGP4","REF_FRAME":"TEME","APOAPSIS":"548.608","EPHEMERIS_TYPE":"0","ELEMENT_SET_NO":"999","LAUNCH_DATE":"2020-10-06","TIME_SYSTEM":"UTC","OBJECT_NAME":"STARLINK-1659","COUNTRY_CODE":"US","OBJECT_TYPE":"PAYLOAD","TLE_LINE2":"2 46534  53.0515 226.3749 0002032  74.4782 285.6432 15.06404066 68180","CLASSIFICATION_TYPE":"U","NORAD_CAT_ID":"46534","MEAN_ANOMALY":"285.6432","CENTER_NAME":"EARTH","MEAN_MOTION_DOT":"0.00001723","SITE":"AFETR","MEAN_MOTION_DDOT":"0.0000000000000","PERIOD":"95.592","TLE_LINE1":"1 46534U 20070C   21359.93971848  .00001723  00000-0  13457-3 0  9996","REV_AT_EPOCH":"6818","SEMIMAJOR_AXIS":"6925.336","MEAN_MOTION":"15.06404066","RA_OF_ASC_NODE":"226.3749","ECCENTRICITY":"0.00020320","ARG_OF_PERICENTER":"74.4782","PERIAPSIS":"545.794","GP_ID":"192456640","EPOCH":"2021-12-25T22:33:11.676672","DECAY_DATE":null,"FILE":"3250974","INCLINATION":"53.0515","RCS_SIZE":"LARGE","BSTAR":"0.00013457000000","OBJECT_ID":"2020-070C"},{"SITE":"AFETR","PERIOD":"95.591","MEAN_MOTION_DDOT":"0.0000000000000","COUNTRY_CODE":"US","OBJECT_NAME":"STARLINK-1663","TLE_LINE2":"2 46535  53.0536 226.7331 0002074  69.6350 290.4861 15.06420467 68169","OBJECT_TYPE":"PAYLOAD","NORAD_CAT_ID":"46535","CENTER_NAME":"EARTH","MEAN_ANOMALY":"290.4861","CLASSIFICATION_TYPE":"U","MEAN_MOTION_DOT":"-0.00009924","LAUNCH_DATE":"2020-10-06","TIME_SYSTEM":"UTC","MEAN_ELEMENT_THEORY":"SGP4","REF_FRAME":"TEME","APOAPSIS":"548.587","EPHEMERIS_TYPE":"0","ELEMENT_SET_NO":"999","RCS_SIZE":"LARGE","INCLINATION":"53.0536","BSTAR":"-0.00064783000000","OBJECT_ID":"2020-070D","PERIAPSIS":"545.715","GP_ID":"192457891","FILE":"3250974","DECAY_DATE":null,"EPOCH":"2021-12-25T20:41:43.950336","RA_OF_ASC_NODE":"226.7331","SEMIMAJOR_AXIS":"6925.286","MEAN_MOTION":"15.06420467","ECCENTRICITY":"0.00020740","ARG_OF_PERICENTER":"69.6350","TLE_LINE1":"1 46535U 20070D   21359.86231424 -.00009924  00000-0 -64783-3 0  9999","REV_AT_EPOCH":"6816"},{"ECCENTRICITY":"0.00142780","ARG_OF_PERICENTER":"286.9770","SEMIMAJOR_AXIS":"6709.229","MEAN_MOTION":"15.79769939","RA_OF_ASC_NODE":"173.2706","TLE_LINE1":"1 46536U 20070E   21359.89246001  .00117664  00000-0  61807-3 0  9993","REV_AT_EPOCH":"6894","BSTAR":"0.00061807000000","OBJECT_ID":"2020-070E","RCS_SIZE":"LARGE","INCLINATION":"53.0517","FILE":"3250903","DECAY_DATE":null,"EPOCH":"2021-12-25T21:25:08.544864","PERIAPSIS":"321.514","GP_ID":"192434474","LAUNCH_DATE":"2020-10-06","TIME_SYSTEM":"UTC","EPHEMERIS_TYPE":"0","APOAPSIS":"340.673","ELEMENT_SET_NO":"999","MEAN_ELEMENT_THEORY":"SGP4","REF_FRAME":"TEME","SITE":"AFETR","PERIOD":"91.153","MEAN_MOTION_DDOT":"0.0000000000000","MEAN_ANOMALY":"72.9686","NORAD_CAT_ID":"46536","CENTER_NAME":"EARTH","CLASSIFICATION_TYPE":"U","MEAN_MOTION_DOT":"0.00117664","COUNTRY_CODE":"US","OBJECT_NAME":"STARLINK-1668","TLE_LINE2":"2 46536  53.0517 173.2706 0014278 286.9770  72.9686 15.79769939 68944","OBJECT_TYPE":"PAYLOAD"},{"ECCENTRICITY":"0.00024580","ARG_OF_PERICENTER":"71.6279","MEAN_MOTION":"15.06395279","SEMIMAJOR_AXIS":"6925.363","RA_OF_ASC_NODE":"226.6163","TLE_LINE1":"1 46537U 20070F   21359.88813357  .00001234  00000-0  10175-3 0  9994","REV_AT_EPOCH":"6817","BSTAR":"0.00010175000000","OBJECT_ID":"2020-070F","INCLINATION":"53.0508","RCS_SIZE":"LARGE","DECAY_DATE":null,"EPOCH":"2021-12-25T21:18:54.740448","FILE":"3250974","PERIAPSIS":"545.526","GP_ID":"192456390","LAUNCH_DATE":"2020-10-06","TIME_SYSTEM":"UTC","APOAPSIS":"548.930","EPHEMERIS_TYPE":"0","ELEMENT_SET_NO":"999","MEAN_ELEMENT_THEORY":"SGP4","REF_FRAME":"TEME","SITE":"AFETR","MEAN_MOTION_DDOT":"0.0000000000000","PERIOD":"95.592","CLASSIFICATION_TYPE":"U","NORAD_CAT_ID":"46537","MEAN_ANOMALY":"288.4977","CENTER_NAME":"EARTH","MEAN_MOTION_DOT":"0.00001234","COUNTRY_CODE":"US","OBJECT_NAME":"STARLINK-1672","OBJECT_TYPE":"PAYLOAD","TLE_LINE2":"2 46537  53.0508 226.6163 0002458  71.6279 288.4977 15.06395279 68179"},{"PERIAPSIS":"546.057","GP_ID":"192457140","FILE":"3250974","DECAY_DATE":null,"EPOCH":"2021-12-25T20:47:04.515072","RCS_SIZE":"LARGE","INCLINATION":"53.0533","BSTAR":"0.00058171000000","OBJECT_ID":"2020-070G","TLE_LINE1":"1 46538U 20070G   21359.86602448  .00008383  00000-0  58171-3 0  9990","REV_AT_EPOCH":"6816","SEMIMAJOR_AXIS":"6925.486","RA_OF_ASC_NODE":"226.7141","MEAN_MOTION":"15.06355063","ECCENTRICITY":"0.00018690","ARG_OF_PERICENTER":"76.2322","OBJECT_NAME":"STARLINK-1678","COUNTRY_CODE":"US","TLE_LINE2":"2 46538  53.0533 226.7141 0001869  76.2322 283.8875 15.06355063 68162","OBJECT_TYPE":"PAYLOAD","NORAD_CAT_ID":"46538","MEAN_ANOMALY":"283.8875","CENTER_NAME":"EARTH","CLASSIFICATION_TYPE":"U","MEAN_MOTION_DOT":"0.00008383","SITE":"AFETR","PERIOD":"95.595","MEAN_MOTION_DDOT":"0.0000000000000","MEAN_ELEMENT_THEORY":"SGP4","REF_FRAME":"TEME","EPHEMERIS_TYPE":"0","APOAPSIS":"548.646","ELEMENT_SET_NO":"999","LAUNCH_DATE":"2020-10-06","TIME_SYSTEM":"UTC"},{"MEAN_MOTION_DDOT":"0.0000000000000","PERIOD":"94.136","SITE":"AFETR","MEAN_MOTION_DOT":"0.00588468","CLASSIFICATION_TYPE":"U","NORAD_CAT_ID":"46539","MEAN_ANOMALY":"327.3555","CENTER_NAME":"EARTH","OBJECT_TYPE":"PAYLOAD","TLE_LINE2":"2 46539  53.0468 223.8963 0002210  32.7581 327.3555 15.29709623 68210","COUNTRY_CODE":"US","OBJECT_NAME":"STARLINK-1684","TIME_SYSTEM":"UTC","LAUNCH_DATE":"2020-10-06","ELEMENT_SET_NO":"999","APOAPSIS":"478.197","EPHEMERIS_TYPE":"0","REF_FRAME":"TEME","MEAN_ELEMENT_THEORY":"SGP4","OBJECT_ID":"2020-070H","BSTAR":"0.01886200000000","INCLINATION":"53.0468","RCS_SIZE":"LARGE","DECAY_DATE":null,"EPOCH":"2021-12-25T20:25:47.851392","FILE":"3250974","GP_ID":"192457392","PERIAPSIS":"475.167","ARG_OF_PERICENTER":"32.7581","ECCENTRICITY":"0.00022100","MEAN_MOTION":"15.29709623","SEMIMAJOR_AXIS":"6854.817","RA_OF_ASC_NODE":"223.8963","REV_AT_EPOCH":"6821","TLE_LINE1":"1 46539U 20070H   21359.85124828  .00588468  00000-0  18862-1 0  9999"},{"SITE":"AFETR","PERIOD":"95.593","MEAN_MOTION_DDOT":"0.0000000000000","MEAN_ANOMALY":"280.0677","NORAD_CAT_ID":"46541","CENTER_NAME":"EARTH","CLASSIFICATION_TYPE":"U","MEAN_MOTION_DOT":"0.00002559","COUNTRY_CODE":"US","OBJECT_NAME":"STARLINK-1687","TLE_LINE2":"2 46541  53.0531 206.7905 0002482  80.0592 280.0677 15.06392186 68441","OBJECT_TYPE":"PAYLOAD","LAUNCH_DATE":"2020-10-06","TIME_SYSTEM":"UTC","APOAPSIS":"548.956","EPHEMERIS_TYPE":"0","ELEMENT_SET_NO":"999","MEAN_ELEMENT_THEORY":"SGP4","REF_FRAME":"TEME","BSTAR":"0.00019072000000","OBJECT_ID":"2020-070K","RCS_SIZE":"LARGE","INCLINATION":"53.0531","FILE":"3250974","DECAY_DATE":null,"EPOCH":"2021-12-25T20:17:53.505888","PERIAPSIS":"545.519","GP_ID":"192458140","ECCENTRICITY":"0.00024820","ARG_OF_PERICENTER":"80.0592","SEMIMAJOR_AXIS":"6925.373","RA_OF_ASC_NODE":"206.7905","MEAN_MOTION":"15.06392186","TLE_LINE1":"1 46541U 20070K   21359.84575817  .00002559  00000-0  19072-3 0  9997","REV_AT_EPOCH":"6844"}];
